{
 "cells": [
  {
   "cell_type": "markdown",
   "id": "artificial-clinic",
   "metadata": {},
   "source": [
    "# Probabilistic Programming Module\n",
    "\n",
    "\n",
    "Here, we discuss how to use the probabilistic programming module to synthetically generate CDMs.\n",
    "\n"
   ]
  },
  {
   "cell_type": "code",
   "execution_count": 1,
   "id": "d6f58e4e",
   "metadata": {},
   "outputs": [],
   "source": [
    "import kessler\n",
    "import pyro\n",
    "import numpy as np\n",
    "import dsgp4"
   ]
  },
  {
   "cell_type": "code",
   "execution_count": 2,
   "id": "c0f44a09",
   "metadata": {},
   "outputs": [],
   "source": [
    "#we seed everything for reproducibility\n",
    "pyro.set_rng_seed(10)\n",
    "\n",
    "#we define the observing instruments\n",
    "#GNSS first:\n",
    "gnss_cov_rtn=np.array([1e-9, 1.115849341564346, 0.059309835843067, 1e-9, 1e-9, 1e-9])**2,\n",
    "instrument_characteristics_gnss={'bias_xyz': np.array([[0., 0., 0.],\n",
    "       [0., 0., 0.]]), 'covariance_rtn': gnss_cov_rtn}\n",
    "gnss = kessler.GNSS(instrument_characteristics_gnss)\n",
    "\n",
    "#and then radar:\n",
    "radar_cov_rtn=np.array([1.9628939405514678, 2.2307686944695706, 0.9660907831563862, 1e-9, 1e-9, 1e-9])**2\n",
    "instrument_characteristics_radar={'bias_xyz': np.array([[0., 0., 0.],\n",
    "       [0., 0., 0.]]), 'covariance_rtn': radar_cov_rtn}\n",
    "radar = kessler.Radar(instrument_characteristics_radar)\n"
   ]
  },
  {
   "cell_type": "code",
   "execution_count": 3,
   "id": "245991f4",
   "metadata": {},
   "outputs": [
    {
     "name": "stdout",
     "output_type": "stream",
     "text": [
      "loaded 20 TLEs\n"
     ]
    }
   ],
   "source": [
    "tles=dsgp4.tle.load('tles_sample_population.txt')\n",
    "print(f\"loaded {len(tles)} TLEs\")"
   ]
  },
  {
   "cell_type": "code",
   "execution_count": 6,
   "id": "29cf82bb",
   "metadata": {},
   "outputs": [],
   "source": [
    "# tles=dsgp4.tle.load('tles_sample_population.txt')\n",
    "\n",
    "# tles_filtered=[]\n",
    "# for tle in tqdm(tles):\n",
    "#     try: \n",
    "#         dsgp4.initialize_tle(tle)\n",
    "#         if tle.apogee_alt()<560*1e3:\n",
    "#             tles_filtered.append(tle)\n",
    "#     except:\n",
    "#         continue"
   ]
  },
  {
   "cell_type": "code",
   "execution_count": 5,
   "id": "7eb20f3f",
   "metadata": {},
   "outputs": [],
   "source": [
    "conjunction_model = kessler.model.ConjunctionSimplified(time0=60727.13899462018,\n",
    "                                                        # max_duration_days=7.0,\n",
    "                                                        # time_resolution=600000.0,\n",
    "                                                        # time_upsample_factor=100,\n",
    "                                                        miss_dist_threshold=5000.0,\n",
    "                                                        prior_dict=None,\n",
    "                                                        t_prob_new_obs=0.96,\n",
    "                                                        c_prob_new_obs=0.4,\n",
    "                                                        cdm_update_every_hours=8.0,\n",
    "                                                        mc_samples=100,\n",
    "                                                        mc_upsample_factor=100,\n",
    "                                                        pc_method='MC',\n",
    "                                                        collision_threshold=70,\n",
    "                                                        # likelihood_t_stddev=[371.068006, 0.0999999999, 0.172560879],\n",
    "                                                        # likelihood_c_stddev=[371.068006, 0.0999999999, 0.172560879],\n",
    "                                                        likelihood_time_to_tca_stddev=0.7,\n",
    "                                                        t_observing_instruments=[gnss],\n",
    "                                                        c_observing_instruments=[radar],\n",
    "                                                        tles=tles,)"
   ]
  },
  {
   "cell_type": "code",
   "execution_count": 6,
   "id": "20c49ee3",
   "metadata": {},
   "outputs": [
    {
     "name": "stderr",
     "output_type": "stream",
     "text": [
      "/Users/ga00693/Develop/kessler/kessler/model.py:765: UserWarning: To copy construct from a tensor, it is recommended to use sourceTensor.clone().detach() or sourceTensor.clone().detach().requires_grad_(True), rather than torch.tensor(sourceTensor).\n",
      "  pyro.deterministic('conj',torch.tensor(conj))\n",
      "/Users/ga00693/Develop/kessler/kessler/util.py:85: UserWarning: Using torch.cross without specifying the dim arg is deprecated.\n",
      "Please either pass the dim explicitly or simply use torch.linalg.cross.\n",
      "The default value of dim will change to agree with that of linalg.cross in a future release. (Triggered internally at /Users/runner/miniforge3/conda-bld/libtorch_1738206012956/work/aten/src/ATen/native/Cross.cpp:66.)\n",
      "  h_vec = torch.cross(r_vec, v_vec)\n"
     ]
    },
    {
     "name": "stdout",
     "output_type": "stream",
     "text": [
      "After 1170 iterations, generated event with 2 CDMs\n"
     ]
    }
   ],
   "source": [
    "trace,iterations=conjunction_model.get_conjunction()"
   ]
  },
  {
   "cell_type": "code",
   "execution_count": 9,
   "id": "d1fcae4b",
   "metadata": {},
   "outputs": [
    {
     "data": {
      "text/plain": [
       "[CCSDS_CDM_VERS                        = 1.0\n",
       " CREATION_DATE                         = 2025-02-21T03:20:09.135184\n",
       " ORIGINATOR                            = KESSLER_SOFTWARE\n",
       " MESSAGE_ID                            = KESSLER_SOFTWARE_ac66059e-20e6-11f0-b2ee-f2a9f71f7e1a\n",
       " TCA                                   = 2025-02-22T01:17:28.408663\n",
       " MISS_DISTANCE                         = 141514.9960370336\n",
       " RELATIVE_SPEED                        = 8783.071096663718\n",
       " RELATIVE_POSITION_R                   = -3769.8761935982398\n",
       " RELATIVE_POSITION_T                   = -110791.09624826182\n",
       " RELATIVE_POSITION_N                   = -87963.71484285413\n",
       " RELATIVE_VELOCITY_R                   = -144.7709891581174\n",
       " RELATIVE_VELOCITY_T                   = -5424.100602146948\n",
       " RELATIVE_VELOCITY_N                   = -6906.555719570857\n",
       " COLLISION_PROBABILITY                 = 0.0\n",
       " COLLISION_PROBABILITY_METHOD          = MC\n",
       " OBJECT                                = OBJECT1\n",
       " OBJECT_DESIGNATOR                     = 76126AP\n",
       " CATALOG_NAME                          = 9827\n",
       " OBJECT_NAME                           = COSMOS 886 DEB\n",
       " INTERNATIONAL_DESIGNATOR              = 76126AP\n",
       " EPHEMERIS_NAME                        = NONE\n",
       " COVARIANCE_METHOD                     = CALCULATED\n",
       " MANEUVERABLE                          = N/A\n",
       " ORBIT_CENTER                          = EARTH\n",
       " REF_FRAME                             = ITRF\n",
       " X                                     = 2980.1734541932515\n",
       " Y                                     = -5181.782698754123\n",
       " Z                                     = -3422.116689930527\n",
       " X_DOT                                 = 4.425575967702924\n",
       " Y_DOT                                 = -1.3655090728792418\n",
       " Z_DOT                                 = 5.7673902574303915\n",
       " CR_R                                  = 434.5847746412686\n",
       " CT_R                                  = 3804.230266317108\n",
       " CT_T                                  = 41269.012800060416\n",
       " CN_R                                  = -224.26822649455545\n",
       " CN_T                                  = -3739.194423008724\n",
       " CN_N                                  = 4893.388541408624\n",
       " CRDOT_R                               = -2.690240978331646\n",
       " CRDOT_T                               = -32.45608595843143\n",
       " CRDOT_N                               = 3.3748910113664388\n",
       " CRDOT_RDOT                            = 0.026616660879604667\n",
       " CTDOT_R                               = -0.45587521823581134\n",
       " CTDOT_T                               = -3.891974449268055\n",
       " CTDOT_N                               = 0.21602245879137436\n",
       " CTDOT_RDOT                            = 0.002711690719702106\n",
       " CTDOT_TDOT                            = 0.000479432666082355\n",
       " CNDOT_R                               = 0.27513941996415164\n",
       " CNDOT_T                               = 0.4561951334680935\n",
       " CNDOT_N                               = -0.44165624627125066\n",
       " CNDOT_RDOT                            = 0.0004400365334853134\n",
       " CNDOT_TDOT                            = -0.0003127338855863759\n",
       " CNDOT_NDOT                            = 0.004822710541832547\n",
       " OBJECT                                = OBJECT2\n",
       " OBJECT_DESIGNATOR                     = 65082PT\n",
       " CATALOG_NAME                          = 3462\n",
       " OBJECT_NAME                           = TITAN 3C TRANSTAGE DEB\n",
       " INTERNATIONAL_DESIGNATOR              = 65082PT\n",
       " EPHEMERIS_NAME                        = NONE\n",
       " COVARIANCE_METHOD                     = CALCULATED\n",
       " MANEUVERABLE                          = N/A\n",
       " ORBIT_CENTER                          = EARTH\n",
       " REF_FRAME                             = ITRF\n",
       " X                                     = 2972.4172682119224\n",
       " Y                                     = -5103.530721008279\n",
       " Z                                     = -3539.772814553296\n",
       " X_DOT                                 = 5.826757151768794\n",
       " Y_DOT                                 = 4.085711393314795\n",
       " Z_DOT                                 = -0.9752519996834083\n",
       " CR_R                                  = 15.608895194536064\n",
       " CT_R                                  = -1831.7454009406745\n",
       " CT_T                                  = 387066.15903594147\n",
       " CN_R                                  = 71.5596813096827\n",
       " CN_T                                  = -6122.2782569260735\n",
       " CN_N                                  = 5424.209709946298\n",
       " CRDOT_R                               = 2.1418685416237584\n",
       " CRDOT_T                               = -416.38358827942716\n",
       " CRDOT_N                               = 8.17067859275866\n",
       " CRDOT_RDOT                            = 0.45361166277724996\n",
       " CTDOT_R                               = -0.005166751853750279\n",
       " CTDOT_T                               = -0.1424221310036492\n",
       " CTDOT_N                               = -0.019218390871709318\n",
       " CTDOT_RDOT                            = 1.609E-05\n",
       " CTDOT_TDOT                            = 5.202E-06\n",
       " CNDOT_R                               = 0.06170571196677281\n",
       " CNDOT_T                               = -8.629383890813989\n",
       " CNDOT_N                               = 1.1567101080406283\n",
       " CNDOT_RDOT                            = 0.010208457878684038\n",
       " CNDOT_TDOT                            = -1.756E-05\n",
       " CNDOT_NDOT                            = 0.0021928221709182245,\n",
       " CCSDS_CDM_VERS                        = 1.0\n",
       " CREATION_DATE                         = 2025-02-21T11:20:08.694966\n",
       " ORIGINATOR                            = KESSLER_SOFTWARE\n",
       " MESSAGE_ID                            = KESSLER_SOFTWARE_adc65ed4-20e6-11f0-b2ee-f2a9f71f7e1a\n",
       " TCA                                   = 2025-02-22T01:17:28.408663\n",
       " MISS_DISTANCE                         = 119296.4071367849\n",
       " RELATIVE_SPEED                        = 8781.77597072965\n",
       " RELATIVE_POSITION_R                   = -3392.400548990203\n",
       " RELATIVE_POSITION_T                   = -79317.283331336\n",
       " RELATIVE_POSITION_N                   = -89044.33131422414\n",
       " RELATIVE_VELOCITY_R                   = -154.91187193411943\n",
       " RELATIVE_VELOCITY_T                   = -5422.481073457308\n",
       " RELATIVE_VELOCITY_N                   = -6905.960506693898\n",
       " COLLISION_PROBABILITY                 = 0.0\n",
       " COLLISION_PROBABILITY_METHOD          = MC\n",
       " OBJECT                                = OBJECT1\n",
       " OBJECT_DESIGNATOR                     = 76126AP\n",
       " CATALOG_NAME                          = 9827\n",
       " OBJECT_NAME                           = COSMOS 886 DEB\n",
       " INTERNATIONAL_DESIGNATOR              = 76126AP\n",
       " EPHEMERIS_NAME                        = NONE\n",
       " COVARIANCE_METHOD                     = CALCULATED\n",
       " MANEUVERABLE                          = N/A\n",
       " ORBIT_CENTER                          = EARTH\n",
       " REF_FRAME                             = ITRF\n",
       " X                                     = 2961.416138954747\n",
       " Y                                     = -5176.42090647565\n",
       " Z                                     = -3446.5166602514805\n",
       " X_DOT                                 = 4.441367932633197\n",
       " Y_DOT                                 = -1.3893739558637068\n",
       " Z_DOT                                 = 5.749634804852701\n",
       " CR_R                                  = 418.4789881653135\n",
       " CT_R                                  = 2833.654900508839\n",
       " CT_T                                  = 26275.07871526111\n",
       " CN_R                                  = 235.96450630189815\n",
       " CN_T                                  = 1379.1837684683846\n",
       " CN_N                                  = 3824.354403059597\n",
       " CRDOT_R                               = -1.629021196870671\n",
       " CRDOT_T                               = -18.917640141448356\n",
       " CRDOT_N                               = -0.6906003255748716\n",
       " CRDOT_RDOT                            = 0.015134294118617029\n",
       " CTDOT_R                               = -0.44696031062349284\n",
       " CTDOT_T                               = -2.9384291761156875\n",
       " CTDOT_N                               = -0.2522263711844156\n",
       " CTDOT_RDOT                            = 0.001641663225350465\n",
       " CTDOT_TDOT                            = 0.0004784788899478311\n",
       " CNDOT_R                               = 0.15032615582479048\n",
       " CNDOT_T                               = 0.0059359771572660164\n",
       " CNDOT_N                               = -0.3262798823098171\n",
       " CNDOT_RDOT                            = 0.0004967254843707441\n",
       " CNDOT_TDOT                            = -0.00017283616485068076\n",
       " CNDOT_NDOT                            = 0.005746080835028397\n",
       " OBJECT                                = OBJECT2\n",
       " OBJECT_DESIGNATOR                     = 65082PT\n",
       " CATALOG_NAME                          = 3462\n",
       " OBJECT_NAME                           = TITAN 3C TRANSTAGE DEB\n",
       " INTERNATIONAL_DESIGNATOR              = 65082PT\n",
       " EPHEMERIS_NAME                        = NONE\n",
       " COVARIANCE_METHOD                     = CALCULATED\n",
       " MANEUVERABLE                          = N/A\n",
       " ORBIT_CENTER                          = EARTH\n",
       " REF_FRAME                             = ITRF\n",
       " X                                     = 2973.071864839906\n",
       " Y                                     = -5103.077176433223\n",
       " Z                                     = -3539.878719318852\n",
       " X_DOT                                 = 5.826399482002183\n",
       " Y_DOT                                 = 4.0863283565475435\n",
       " Z_DOT                                 = -0.9747953563722136\n",
       " CR_R                                  = 19.416112754758714\n",
       " CT_R                                  = -1063.96729664468\n",
       " CT_T                                  = 122541.70103023999\n",
       " CN_R                                  = -35.02940219476802\n",
       " CN_T                                  = 1550.9822755102928\n",
       " CN_N                                  = 5255.002744568752\n",
       " CRDOT_R                               = 1.2925239374152526\n",
       " CRDOT_T                               = -126.57004812480902\n",
       " CRDOT_N                               = -2.22107658156981\n",
       " CRDOT_RDOT                            = 0.1356785119000294\n",
       " CTDOT_R                               = -0.010480352857442607\n",
       " CTDOT_T                               = 0.30203170115238487\n",
       " CTDOT_N                               = 0.03313019924386015\n",
       " CTDOT_RDOT                            = -0.00046144760169145884\n",
       " CTDOT_TDOT                            = 7.133E-06\n",
       " CNDOT_R                               = -0.01550631317382298\n",
       " CNDOT_T                               = -0.7484418552935522\n",
       " CNDOT_N                               = 1.171583503661754\n",
       " CNDOT_RDOT                            = 0.0008530656635604496\n",
       " CNDOT_TDOT                            = 1.209E-05\n",
       " CNDOT_NDOT                            = 0.0018826631138264438]"
      ]
     },
     "execution_count": 9,
     "metadata": {},
     "output_type": "execute_result"
    }
   ],
   "source": [
    "trace.nodes['cdms']['infer']['cdms']"
   ]
  },
  {
   "cell_type": "code",
   "execution_count": 35,
   "id": "1313a4f5",
   "metadata": {},
   "outputs": [],
   "source": [
    "#let's save all cdms to kvn files:\n",
    "#for i in range(len(trace.nodes['cdms']['infer']['cdms'])):    \n",
    "#    trace.nodes['cdms']['infer']['cdms'][i].save(f'event2_{i}.kvn')"
   ]
  }
 ],
 "metadata": {
  "kernelspec": {
   "display_name": "kessler",
   "language": "python",
   "name": "python3"
  },
  "language_info": {
   "codemirror_mode": {
    "name": "ipython",
    "version": 3
   },
   "file_extension": ".py",
   "mimetype": "text/x-python",
   "name": "python",
   "nbconvert_exporter": "python",
   "pygments_lexer": "ipython3",
   "version": "3.12.8"
  }
 },
 "nbformat": 4,
 "nbformat_minor": 5
}
